{
  "type": "FeatureCollection",
  "features": [
    {
      "type": "Feature",
      "properties": {
        "name": "SubaHibi: Parthenon Avenue (Maghreb Building)",
        "image": "https://en.nalsai.de/blog/seichi/subahibi/maghreb-biru.avif",
        "link": "https://en.nalsai.de/blog/seichi/subahibi/#tama-center---maghreb-building-from-parthenon-avenue"
      },
      "geometry": {
        "type": "Point",
        "coordinates": [
          139.424761304447,
          35.62414840183171
        ]
      }
    },
    {
      "type": "Feature",
      "properties": {
        "name": "SubaHibi: Renga Bridge",
        "image": "https://en.nalsai.de/blog/seichi/subahibi/renga-bashi.avif",
        "link": "https://en.nalsai.de/blog/seichi/subahibi/#renga-bridge"
      },
      "geometry": {
        "type": "Point",
        "coordinates": [
          139.42387310769774,
          35.62154323630518
        ]
      }
    },
    {
      "type": "Feature",
      "geometry": {
        "type": "Point",
        "coordinates": [
          139.7002269286329,
          35.659382674131
        ]
      },
      "properties": {
        "name": "SubaHibi: Rooftop Background Buildings (Shibuya)",
        "image": "https://en.nalsai.de/blog/seichi/subahibi/roof.avif",
        "link": "https://en.nalsai.de/blog/seichi/subahibi/#buildings"
      }
    }
  ]
}